{
  "norad_id": 66680,
  "name": "OTTER",
  "history": [
    {
      "epoch": "2026-03-28T17:00:46.545984Z",
      "apogee_km": 513.9965780648608,
      "perigee_km": 508.10081294664724,
      "latitude_deg": 2.4516816682502e-05,
      "longitude_deg": 81.20222318566684,
      "height_km": 513.7165082890916,
      "semi_major_axis_km": 6889.185695505754,
      "eccentricity": 0.0004279,
      "inclination_deg": 97.4253,
      "raan_deg": 162.5216,
      "arg_perigee_deg": 278.2808,
      "mean_anomaly_deg": 81.7941,
      "mean_motion_rev_day": 15.18276693
    },
    {
      "epoch": "2026-03-29T04:05:06.486144Z",
      "apogee_km": 513.967093013961,
      "perigee_km": 508.07135311826005,
      "latitude_deg": -4.9512481111141435e-05,
      "longitude_deg": -84.88267057268746,
      "height_km": 513.7956083283484,
      "semi_major_axis_km": 6889.15622306611,
      "eccentricity": 0.0004279,
      "inclination_deg": 97.4253,
      "raan_deg": 162.9745,
      "arg_perigee_deg": 276.1548,
      "mean_anomaly_deg": 83.9198,
      "mean_motion_rev_day": 15.18286436
    }
  ]
}